GSAT0213 (GALILEO 17)   
1 41861U 16069C   26115.17360778  .00000045  00000+0  00000+0 0  9993
2 41861  55.4662 102.5544 0005854 302.3888  57.5492  1.70474518 58614
GSAT0214 (GALILEO 18)   
1 41862U 16069D   26115.31972418  .00000045  00000+0  00000+0 0  9990
2 41862  55.4645 102.5431 0004908 307.4228  52.5273  1.70474268 58742
SES-15 (WAAS/PRN 133)   
1 42709U 17026A   26115.68411983  .00000046  00000+0  00000+0 0  9991
2 42709   0.0249 331.2396 0000623  35.8861 323.6956  1.00270298  6906
QZS-2 (QZSS/PRN 194)    
1 42738U 17028A   26115.64588199 -.00000262  00000+0  00000+0 0  9996
2 42738  39.5105 243.9205 0740383 270.7988  69.6269  1.00247691  7094
QZS-3 (QZSS/PRN 199)    
1 42917U 17048A   26115.80617237 -.00000362  00000+0  00000+0 0  9992
2 42917   0.0512 184.5731 0001334 195.4377 251.0653  1.00271366 31731
COSMOS 2522 (752)       
1 42939U 17055A   26115.09669524 -.00000017  00000+0  00000+0 0  9998
2 42939  64.0763 193.6909 0009475 236.5464 123.4103  2.13101747 66841
QZS-4 (QZSS/PRN 195)    
1 42965U 17062A   26112.66690654 -.00000326  00000+0  00000+0 0  9996
2 42965  40.1416 344.1915 0746625 270.8161 335.9811  1.00266456 31246
BEIDOU-3 M1 (C19)       
1 43001U 17069A   26114.43741611 -.00000021  00000+0  00000+0 0  9994
2 43001  56.6481  64.8538 0012244 317.8218  42.0593  1.86230859 57600
BEIDOU-3 M2 (C20)       
1 43002U 17069B   26114.91298418 -.00000024  00000+0  00000+0 0  9993
2 43002  56.6476  64.8741 0010188 339.1102  20.8228  1.86230354 57604
GSAT0215 (GALILEO 19)   
1 43055U 17079A   26113.46347810 -.00000022  00000+0  00000+0 0  9990
2 43055  55.0907 223.0118 0001428 264.4741  95.5096  1.70474699 52058
GSAT0216 (GALILEO 20)   
1 43056U 17079B   26114.92781412 -.00000034  00000+0  00000+0 0  9996
2 43056  55.0895 222.9715 0002775 284.1808  75.7828  1.70474805 52091
GSAT0217 (GALILEO 21)   
1 43057U 17079C   26115.14858824 -.00000035  00000+0  00000+0 0  9995
2 43057  55.0882 222.9635 0002225 307.4520  52.5215  1.70474762 52083
GSAT0218 (GALILEO 22)   
1 43058U 17079D   26115.36864560 -.00000036  00000+0  00000+0 0  9995
2 43058  55.0881 222.9550 0003304 275.9079  84.0474  1.70474703 52112
BEIDOU-3 M7 (C27)       
1 43107U 18003A   26114.11756823 -.00000045  00000+0  00000+0 0  9992
2 43107  54.3768 304.1996 0005304  82.0952 277.9663  1.86227876 56345
BEIDOU-3 M8 (C28)       
1 43108U 18003B   26115.67404087 -.00000053  00000+0  00000+0 0  9996
2 43108  54.3681 304.1275 0002232 286.7140  73.2624  1.86230761 56384
BEIDOU-3 M4 (C22)       
1 43207U 18018A   26115.04264605 -.00000025  00000+0  00000+0 0  9992
2 43207  56.6074  64.8995 0007871   1.7700 358.2071  1.86230859 55755
BEIDOU-3 M3 (C21)       
1 43208U 18018B   26115.10909459 -.00000026  00000+0  00000+0 0  9994
2 43208  56.6071  64.9014 0010072 329.7984  30.1178  1.86230788 55755
